CCSDS_OMM_VERS = 2.0
CREATION_DATE  = 
ORIGINATOR     = 

OBJECT_NAME    = ATLAS CENTAUR R/B
OBJECT_ID      = 1972-065B
CENTER_NAME    = EARTH
REF_FRAME      = TEME
TIME_SYSTEM    = UTC
MEAN_ELEMENT_THEORY = SGP/SGP4

EPOCH          = 2026-03-11T22:09:24.615648
MEAN_MOTION    = 14.77693404
ECCENTRICITY   = .00332763
INCLINATION    = 35.0013
RA_OF_ASC_NODE = 292.6652
ARG_OF_PERICENTER = 27.7558
MEAN_ANOMALY   = 332.4911

EPHEMERIS_TYPE = 0
CLASSIFICATION_TYPE = U
NORAD_CAT_ID   = 6155
ELEMENT_SET_NO = 999
REV_AT_EPOCH   = 84159
BSTAR          = .19621491E-3
MEAN_MOTION_DOT = .1417E-4
MEAN_MOTION_DDOT = 0

CCSDS_OMM_VERS = 2.0
CREATION_DATE  = 
ORIGINATOR     = 

OBJECT_NAME    = SL-8 R/B
OBJECT_ID      = 1975-112B
CENTER_NAME    = EARTH
REF_FRAME      = TEME
TIME_SYSTEM    = UTC
MEAN_ELEMENT_THEORY = SGP/SGP4

EPOCH          = 2026-03-11T22:30:13.660704
MEAN_MOTION    = 14.38205107
ECCENTRICITY   = .00144013
INCLINATION    = 74.0631
RA_OF_ASC_NODE = 14.7768
ARG_OF_PERICENTER = 107.1415
MEAN_ANOMALY   = 253.1317

EPHEMERIS_TYPE = 0
CLASSIFICATION_TYPE = U
NORAD_CAT_ID   = 8459
ELEMENT_SET_NO = 999
REV_AT_EPOCH   = 63219
BSTAR          = .99968745E-4
MEAN_MOTION_DOT = .278E-5
MEAN_MOTION_DDOT = 0

CCSDS_OMM_VERS = 2.0
CREATION_DATE  = 
ORIGINATOR     = 

OBJECT_NAME    = SL-3 R/B
OBJECT_ID      = 1977-057B
CENTER_NAME    = EARTH
REF_FRAME      = TEME
TIME_SYSTEM    = UTC
MEAN_ELEMENT_THEORY = SGP/SGP4

EPOCH          = 2026-03-11T22:05:15.174528
MEAN_MOTION    = 15.45563222
ECCENTRICITY   = .00061752
INCLINATION    = 97.5779
RA_OF_ASC_NODE = 242.9390
ARG_OF_PERICENTER = 275.7145
MEAN_ANOMALY   = 84.3400

EPHEMERIS_TYPE = 0
CLASSIFICATION_TYPE = U
NORAD_CAT_ID   = 10114
ELEMENT_SET_NO = 999
REV_AT_EPOCH   = 66867
BSTAR          = .2844058E-3
MEAN_MOTION_DOT = .13589E-3
MEAN_MOTION_DDOT = 0

CCSDS_OMM_VERS = 2.0
CREATION_DATE  = 
ORIGINATOR     = 

OBJECT_NAME    = SEASAT 1
OBJECT_ID      = 1978-064A
CENTER_NAME    = EARTH
REF_FRAME      = TEME
TIME_SYSTEM    = UTC
MEAN_ELEMENT_THEORY = SGP/SGP4

EPOCH          = 2026-03-11T22:00:41.079168
MEAN_MOTION    = 14.46162152
ECCENTRICITY   = .00023531
INCLINATION    = 108.0105
RA_OF_ASC_NODE = 130.1739
ARG_OF_PERICENTER = 285.4723
MEAN_ANOMALY   = 74.6162

EPHEMERIS_TYPE = 0
CLASSIFICATION_TYPE = U
NORAD_CAT_ID   = 10967
ELEMENT_SET_NO = 999
REV_AT_EPOCH   = 50683
BSTAR          = .11196169E-3
MEAN_MOTION_DOT = .263E-5
MEAN_MOTION_DDOT = 0

CCSDS_OMM_VERS = 2.0
CREATION_DATE  = 
ORIGINATOR     = 

OBJECT_NAME    = SL-14 R/B
OBJECT_ID      = 1979-011B
CENTER_NAME    = EARTH
REF_FRAME      = TEME
TIME_SYSTEM    = UTC
MEAN_ELEMENT_THEORY = SGP/SGP4

EPOCH          = 2026-03-11T19:03:03.556224
MEAN_MOTION    = 14.91910978
ECCENTRICITY   = .00173122
INCLINATION    = 82.5206
RA_OF_ASC_NODE = 94.5738
ARG_OF_PERICENTER = 54.0663
MEAN_ANOMALY   = 306.2159

EPHEMERIS_TYPE = 0
CLASSIFICATION_TYPE = U
NORAD_CAT_ID   = 11267
ELEMENT_SET_NO = 999
REV_AT_EPOCH   = 52909
BSTAR          = .63024895E-4
MEAN_MOTION_DOT = .665E-5
MEAN_MOTION_DDOT = 0

CCSDS_OMM_VERS = 2.0
CREATION_DATE  = 
ORIGINATOR     = 

OBJECT_NAME    = SL-8 R/B
OBJECT_ID      = 1979-089B
CENTER_NAME    = EARTH
REF_FRAME      = TEME
TIME_SYSTEM    = UTC
MEAN_ELEMENT_THEORY = SGP/SGP4

EPOCH          = 2026-03-11T18:09:58.619808
MEAN_MOTION    = 14.42352142
ECCENTRICITY   = .00171337
INCLINATION    = 74.0667
RA_OF_ASC_NODE = 87.2163
ARG_OF_PERICENTER = 259.6606
MEAN_ANOMALY   = 100.2619

EPHEMERIS_TYPE = 0
CLASSIFICATION_TYPE = U
NORAD_CAT_ID   = 11574
ELEMENT_SET_NO = 999
REV_AT_EPOCH   = 43640
BSTAR          = .10332507E-3
MEAN_MOTION_DOT = .315E-5
MEAN_MOTION_DDOT = 0

CCSDS_OMM_VERS = 2.0
CREATION_DATE  = 
ORIGINATOR     = 

OBJECT_NAME    = SL-14 R/B
OBJECT_ID      = 1980-005B
CENTER_NAME    = EARTH
REF_FRAME      = TEME
TIME_SYSTEM    = UTC
MEAN_ELEMENT_THEORY = SGP/SGP4

EPOCH          = 2026-03-11T21:00:27.029376
MEAN_MOTION    = 14.90932896
ECCENTRICITY   = .00163781
INCLINATION    = 82.5141
RA_OF_ASC_NODE = 305.1632
ARG_OF_PERICENTER = 151.3123
MEAN_ANOMALY   = 208.9001

EPHEMERIS_TYPE = 0
CLASSIFICATION_TYPE = U
NORAD_CAT_ID   = 11672
ELEMENT_SET_NO = 999
REV_AT_EPOCH   = 47681
BSTAR          = .57277444E-4
MEAN_MOTION_DOT = .592E-5
MEAN_MOTION_DDOT = 0

CCSDS_OMM_VERS = 2.0
CREATION_DATE  = 
ORIGINATOR     = 

OBJECT_NAME    = SL-8 R/B
OBJECT_ID      = 1981-003B
CENTER_NAME    = EARTH
REF_FRAME      = TEME
TIME_SYSTEM    = UTC
MEAN_ELEMENT_THEORY = SGP/SGP4

EPOCH          = 2026-03-11T20:31:16.378752
MEAN_MOTION    = 15.11064511
ECCENTRICITY   = .02619487
INCLINATION    = 82.9386
RA_OF_ASC_NODE = 288.0216
ARG_OF_PERICENTER = 171.1106
MEAN_ANOMALY   = 189.4906

EPHEMERIS_TYPE = 0
CLASSIFICATION_TYPE = U
NORAD_CAT_ID   = 12139
ELEMENT_SET_NO = 999
REV_AT_EPOCH   = 31500
BSTAR          = .49376332E-3
MEAN_MOTION_DOT = .19297E-3
MEAN_MOTION_DDOT = 0

CCSDS_OMM_VERS = 2.0
CREATION_DATE  = 
ORIGINATOR     = 

OBJECT_NAME    = SL-3 R/B
OBJECT_ID      = 1981-046B
CENTER_NAME    = EARTH
REF_FRAME      = TEME
TIME_SYSTEM    = UTC
MEAN_ELEMENT_THEORY = SGP/SGP4

EPOCH          = 2026-03-11T22:13:12.538848
MEAN_MOTION    = 15.42058535
ECCENTRICITY   = .00193525
INCLINATION    = 81.2299
RA_OF_ASC_NODE = 287.0586
ARG_OF_PERICENTER = 14.6796
MEAN_ANOMALY   = 345.5005

EPHEMERIS_TYPE = 0
CLASSIFICATION_TYPE = U
NORAD_CAT_ID   = 12465
ELEMENT_SET_NO = 999
REV_AT_EPOCH   = 43877
BSTAR          = .28597266E-3
MEAN_MOTION_DOT = .12328E-3
MEAN_MOTION_DDOT = 0

CCSDS_OMM_VERS = 2.0
CREATION_DATE  = 
ORIGINATOR     = 

OBJECT_NAME    = SL-3 R/B
OBJECT_ID      = 1981-103B
CENTER_NAME    = EARTH
REF_FRAME      = TEME
TIME_SYSTEM    = UTC
MEAN_ELEMENT_THEORY = SGP/SGP4

EPOCH          = 2026-03-11T21:02:46.377888
MEAN_MOTION    = 15.21405205
ECCENTRICITY   = .00123137
INCLINATION    = 81.1585
RA_OF_ASC_NODE = 210.8662
ARG_OF_PERICENTER = 278.9801
MEAN_ANOMALY   = 81.0036

EPHEMERIS_TYPE = 0
CLASSIFICATION_TYPE = U
NORAD_CAT_ID   = 12904
ELEMENT_SET_NO = 999
REV_AT_EPOCH   = 97356
BSTAR          = .27660794E-3
MEAN_MOTION_DOT = .6242E-4
MEAN_MOTION_DDOT = 0

CCSDS_OMM_VERS = 2.0
CREATION_DATE  = 
ORIGINATOR     = 

OBJECT_NAME    = SL-3 R/B
OBJECT_ID      = 1982-013B
CENTER_NAME    = EARTH
REF_FRAME      = TEME
TIME_SYSTEM    = UTC
MEAN_ELEMENT_THEORY = SGP/SGP4

EPOCH          = 2026-03-11T22:47:44.912832
MEAN_MOTION    = 15.22041940
ECCENTRICITY   = .00227199
INCLINATION    = 81.1759
RA_OF_ASC_NODE = 158.1221
ARG_OF_PERICENTER = 169.9074
MEAN_ANOMALY   = 190.2619

EPHEMERIS_TYPE = 0
CLASSIFICATION_TYPE = U
NORAD_CAT_ID   = 13068
ELEMENT_SET_NO = 999
REV_AT_EPOCH   = 40469
BSTAR          = .18155609E-3
MEAN_MOTION_DOT = .4204E-4
MEAN_MOTION_DDOT = 0

CCSDS_OMM_VERS = 2.0
CREATION_DATE  = 
ORIGINATOR     = 

OBJECT_NAME    = SL-3 R/B
OBJECT_ID      = 1982-039B
CENTER_NAME    = EARTH
REF_FRAME      = TEME
TIME_SYSTEM    = UTC
MEAN_ELEMENT_THEORY = SGP/SGP4

EPOCH          = 2026-03-11T21:49:58.304640
MEAN_MOTION    = 15.10095835
ECCENTRICITY   = .00296362
INCLINATION    = 81.1579
RA_OF_ASC_NODE = 213.4024
ARG_OF_PERICENTER = 317.2362
MEAN_ANOMALY   = 42.6557

EPHEMERIS_TYPE = 0
CLASSIFICATION_TYPE = U
NORAD_CAT_ID   = 13154
ELEMENT_SET_NO = 999
REV_AT_EPOCH   = 38197
BSTAR          = .1712714E-3
MEAN_MOTION_DOT = .2841E-4
MEAN_MOTION_DDOT = 0

