ATLAS CENTAUR R/B       
1 06155U 72065B   26070.92320157  .00001417  00000+0  19621-3 0  9995
2 06155  35.0013 292.6652 0033276  27.7558 332.4911 14.77693404841593
SL-8 R/B                
1 08459U 75112B   26070.93765811  .00000278  00000+0  99969-4 0  9999
2 08459  74.0631  14.7768 0014401 107.1415 253.1317 14.38205107632195
SL-3 R/B                
1 10114U 77057B   26070.92031452  .00013589  00000+0  28441-3 0  9991
2 10114  97.5779 242.9390 0006175 275.7145  84.3400 15.45563222668679
SEASAT 1                
1 10967U 78064A   26070.91714212  .00000263  00000+0  11196-3 0  9991
2 10967 108.0105 130.1739 0002353 285.4723  74.6162 14.46162152506838
SL-14 R/B               
1 11267U 79011B   26070.79379116  .00000665  00000+0  63025-4 0  9999
2 11267  82.5206  94.5738 0017312  54.0663 306.2159 14.91910978529096
SL-8 R/B                
1 11574U 79089B   26070.75692847  .00000315  00000+0  10333-3 0  9995
2 11574  74.0667  87.2163 0017133 259.6606 100.2619 14.42352142436400
SL-14 R/B               
1 11672U 80005B   26070.87531284  .00000592  00000+0  57277-4 0  9990
2 11672  82.5141 305.1632 0016378 151.3123 208.9001 14.90932896476818
SL-8 R/B                
1 12139U 81003B   26070.85505068  .00019297  00000+0  49376-3 0  9999
2 12139  82.9386 288.0216 0261948 171.1106 189.4906 15.11064511315009
SL-3 R/B                
1 12465U 81046B   26070.92583957  .00012328  00000+0  28597-3 0  9999
2 12465  81.2299 287.0586 0019352  14.6796 345.5005 15.42058535438779
SL-3 R/B                
1 12904U 81103B   26070.87692567  .00006242  00000+0  27661-3 0  9992
2 12904  81.1585 210.8662 0012313 278.9801  81.0036 15.21405205973569
SL-3 R/B                
1 13068U 82013B   26070.94982538  .00004204  00000+0  18156-3 0  9998
2 13068  81.1759 158.1221 0022719 169.9074 190.2619 15.22041940404697
SL-3 R/B                
1 13154U 82039B   26070.90970260  .00002841  00000+0  17127-3 0  9999
2 13154  81.1579 213.4024 0029636 317.2362  42.6557 15.10095835381977
